{
  "norad_id": 65639,
  "name": "STARLINK-35127",
  "history": [
    {
      "epoch": "2026-03-28T18:20:37.832928Z",
      "apogee_km": 476.068531275032,
      "perigee_km": 474.5254120819691,
      "latitude_deg": 2.632154151181138e-05,
      "longitude_deg": 116.98829169646176,
      "height_km": 476.17879490852783,
      "semi_major_axis_km": 6853.433971678501,
      "eccentricity": 0.00011258,
      "inclination_deg": 53.1593,
      "raan_deg": 218.326,
      "arg_perigee_deg": 88.7851,
      "mean_anomaly_deg": 271.3279,
      "mean_motion_rev_day": 15.3017257
    },
    {
      "epoch": "2026-03-30T01:41:44.699136Z",
      "apogee_km": 476.2414533148767,
      "perigee_km": 474.40212204543786,
      "latitude_deg": -6.855197879614616e-06,
      "longitude_deg": -0.6459188041794881,
      "height_km": 476.2863004482305,
      "semi_major_axis_km": 6853.458787680157,
      "eccentricity": 0.00013419,
      "inclination_deg": 53.1597,
      "raan_deg": 212.258,
      "arg_perigee_deg": 94.1515,
      "mean_anomaly_deg": 265.9639,
      "mean_motion_rev_day": 15.30164259
    }
  ]
}